CensusTract,County,DI_ID,FoodProducing,Latitude,Longitude,ObjectID,State,GardenName,Address,NeighborhoodName
28,M,NY1,N/A,40.727124,-73.978677,NA,NY,11 BC Serenity Garden,626 East 11th Street,East Village
N/A,B,NY2,N/A,N/A,N/A,NA,NY,1100 Bergen Street Community Garden,1101 & 1105 Bergen Street,Crown Heights
17402,M,NY3,N/A,40.796295,-73.947533,M382,NY,110th Street Block Association,1651 Madison Avenue,East Harlem
182,M,NY4,N/A,40.798976,-73.940376,M331,NY,117th Street Community Garden,172 E 117th Street,East Harlem
34,M,NY5,N/A,40.729079,-73.983327,NA,NY,11th Street Community Garden,422 East 11th Street,East Village
N/A,X,NY6,N/A,N/A,N/A,NA,NY,211th Street Block Association.,Carlisle Place,N/A
36501,X,NY7,N/A,40.847216,-73.885018,NA,NY,2120 Mapes Avenue HDFC,2124 Mapes Avenue,N/A
N/A,B,NY8,N/A,N/A,N/A,B535,NY,400 Montauk Avenue Block Association. (Ismael Vega y Amigos),New Lots Avenue,East New York
2601,M,NY9,N/A,40.723433,-73.980995,M313A,NY,5th Street Slope Garden Club,626-27 East 5th Street,East Village
141,B,NY10,N/A,40.664706,-73.987554,NA,NY,6/15 Green,274 15th Street,Park Slope
N/A,B,NY11,N/A,N/A,N/A,NA,NY,64th Street Community Garden,64th Street,Sunset Park
2601,M,NY12,N/A,40.724036,-73.980569,M313,NY,6BC Botanical Garden,624-628 E 6th Street,East Village
32,M,NY13,N/A,40.724031,-73.981986,M293,NY,6th Street & Avenue B Garden,78-92 Avenue B,East Village
373,B,NY14,N/A,40.683541,-73.915121,B438,NY,700 Decatur Street Block Association,700 Decatur Street,Bed-Stuy
69,X,NY15,N/A,40.823065,-73.91645,X351,NY,811 Family and Friends Association,809 Courtlandt Avenue,N/A
375,Q,NY16,N/A,40.756409,-73.87122,Q495,NY,97th Street Block Association,33-28 97th Street,Corona
28,M,NY17,N/A,40.725211,-73.977776,M312,NY,9th Street Community Garden & Park,703 East 9th Street,East Village
N/A,B,NY18,N/A,N/A,N/A,B507,NY,A Better Community Garden,762-764 Herkimer Place/13-21 Hunterfly,Bed-Stuy
141,X,NY19,N/A,40.82513,-73.913329,X350,NY,A. Badillo Community Rose Garden,924 Melrose Avenue,Melrose
N/A,B,NY20,N/A,N/A,N/A,NA,NY,Aberdeen Street II Garden Projects,Aberdeen Street,N/A
920,B,NY21,N/A,40.659528,-73.906203,B533,NY,Abib Newborn,495 Osborn Street,East New York
N/A,X,NY22,N/A,N/A,N/A,NA,NY,Adlai E. Stevenson High School-Ecological Garden,1980 Lafayette Avenue/Stickball Avenue,N/A
3602,M,NY23,N/A,40.725347,-73.99132,NA,NY,Alberts Garden,16-18 East 2nd Street,East Village
25901,B,NY24,N/A,40.694344,-73.946088,B439,NY,All People's Church of the Apostolic Faith Community Garden,149 Tompkins Avenue,Bed-Stuy
2601,M,NY25,N/A,40.721396,-73.979916,NA,NY,"All Peoples Garden, Inc.",293-295 East 3rd Street,East Village
51,B,NY26,N/A,40.683251,-74.003548,B409,NY,Amazing Garden,261-265 Columbia Street,Red Hook
902,B,NY27,N/A,40.665633,-73.913605,B440,NY,Amboy St. Garden,199 Amboy Street,N/A
261,B,NY28,N/A,40.693378,-73.946915,B441,NY,American Heart,122 Hart Street,Bed-Stuy
161,X,NY29,N/A,40.83652,-73.885069,X339,NY,Angie Lee-Gonzalez & Luis Gonzalez Garden,1768 Bryant Avenue,N/A
381,X,NY30,N/A,40.852889,-73.901885,NA,NY,Anthony Avenue Garden,2078 Anthony Avenue,N/A
N/A,Q,NY31,N/A,N/A,N/A,Q470,NY,Astoria Residents Reclaiming Our World (ARROW),35th St. Bet. 35th & 36th Aves,N/A
1194,B,NY32,N/A,40.673772,-73.878795,B443,NY,Atkins Gardeners,213 Atkins Avenue,East New York
3601,M,NY33,N/A,40.72252,-73.990728,NA,NY,Auxiliary Services for High Schools @ P.S. 91,198 Forsyth Street,Lower East Side
34,M,NY34,N/A,40.728307,-73.978864,M342,NY,Avenue B Community Garden Association,200 Avenue B,East Village
272,Q,NY35,N/A,40.683535,-73.792211,Q486,NY,B.C.C.A. Mini-Park and Garden,150-14 115th Drive,N/A
196,Q,NY36,N/A,40.689588,-73.803594,NA,NY,Back To Eden,144-29 Lakewood Avenue,N/A
51,B,NY37,N/A,40.682842,-74.006259,B410,NY,Backyard Garden,61-73 Hamilton Avenue,Red Hook
415,X,NY38,N/A,40.870996,-73.884326,NA,NY,Bainbridge Avenue Garden,2974-2980 Bainbridge Avenue,N/A
395,X,NY39,N/A,40.84506,-73.898018,NA,NY,Bathgate Garden,1836 Bathgate Avenue,N/A
N/A,R,NY40,N/A,N/A,N/A,R137A,NY,Bayview Habitat,Bayview Terrace,N/A
94201,Q,NY41,N/A,40.586066,-73.822624,NA,NY,Beach Channel High School,100-00 Beach Channel Drive,Far Rockaway
N/A,B,NY42,N/A,N/A,N/A,NA,NY,Bed-Stuy Community Garden (Lola Bryant Community Garden),93-95 Malcolm X Avenue,Bed-Stuy
381,B,NY43,N/A,40.682166,-73.927115,NA,NY,Bed-Stuy Farm,404 Decatur Street,N/A
389,X,NY44,N/A,40.856921,-73.884462,NA,NY,Belmont Little Farmers,2483 Belmont Avenue,Belmont
551,B,NY45,N/A,40.713449,-73.963827,B444,NY,Berry Street Garden,301-303 Berry Street,Williamsburg
N/A,X,NY46,N/A,N/A,N/A,NA,NY,Bettes Rose Garden,Teller Avenue,N/A
1160,B,NY47,N/A,40.669128,-73.889416,B446,NY,Big Red Garden,436 Van Siclen Avenue,East New York
N/A,X,NY48,N/A,N/A,N/A,NA,NY,Bissel Gardens,in Bissel Street,N/A
184,M,NY49,N/A,40.802263,-73.944274,NA,NY,Black Veterans For Social Justice,22 East 119th Street,East Harlem
N/A,Q,NY50,N/A,N/A,N/A,Q487,NY,Block Association #81,Inwood Street,Jamaica
N/A,M,NY51,N/A,N/A,N/A,M333,NY,Bradhurst Avenue Tenants Association,Bradhurst Avenue,Hamilton Heights
N/A,B,NY52,N/A,N/A,N/A,NA,NY,Bridge Plaza Community Garden,Bridge St,N/A
N/A,B,NY53,N/A,N/A,N/A,NA,NY,Bridge Plaza Court,Bridge Plaza Court,N/A
2601,M,NY54,N/A,40.722296,-73.982048,M334,NY,Brisas Del Caribe,237 E 3rd Street,East Village
39,X,NY55,N/A,40.809829,-73.918667,X246,NY,Brook Park,494 East 141st Street,N/A
179,B,NY56,N/A,40.685731,-73.971356,B421,NY,Brooklyn Bears/Carlton Avenue Garden,397-401 Carlton Avenue,Clinton Hill
N/A,B,NY57,N/A,N/A,N/A,NA,NY,Brooklyn Bears/Pacific Street Garden,Flatbush Avenue,Park Slope
33,B,NY58,N/A,40.687133,-73.979674,B422,NY,Brooklyn Bears/Rockwell Place Garden,65-73 Flatbush Avenue,Downtown Brooklyn
201,B,NY59,N/A,40.681526,-73.961901,NA,NY,Brooklyn's Finest Garden,48 Lefferts Place,N/A
11502,X,NY60,N/A,40.819878,-73.886951,X315,NY,Bryant Hill Community Garden,899-999 Bryant Avenue,Hunt's Point
1160,B,NY61,N/A,40.668623,-73.889471,B447,NY,C.A.U.S.A. Festival Garden,790 Blake Avenue,East New York
20502,X,NY62,N/A,40.851414,-73.918533,NA,NY,C.E.S. 109 - The Angelo Sanchez Inspirational Garden,1771 Popham Avenue,N/A
199,X,NY63,N/A,40.835784,-73.928324,NA,NY,C.E.S. 126 - Literacy Garden,175 W 166th Street,N/A
14702,X,NY64,N/A,40.836404,-73.905014,NA,NY,C.E.S. 55,450 St. Pauls Place,Mt. Eden
189,X,NY65,N/A,40.832706,-73.926838,NA,NY,C.E.S. 73,1020 Anderson Avenue,N/A
153,X,NY66,N/A,40.831035,-73.89477,X340,NY,C.S. 134X - Community Improvement Garden,1313-1311 Bristow Street,Morrisania
224,M,NY67,N/A,40.810928,-73.948938,NA,NY,C.S. 154 - Our Children's Garden,250 W 127th Street,N/A
N/A,M,NY68,N/A,N/A,N/A,NA,NY,C.S. 46 - Tappan School Garden of Heroes,2987 Frederick Douglass Boulevard,N/A
373,X,NY69,N/A,40.848472,-73.888561,NA,NY,C.S. 57 - Garden of Hope,2111 Crotona Avenue,N/A
359,X,NY70,N/A,40.840755,-73.881707,NA,NY,C.S. 6 - West Farms School Garden,1000 East Tremont Avenue,Tremont
153,X,NY71,N/A,40.836575,-73.892817,NA,NY,C.S. 61 - The  Francisco Oller School,1550 Crotona  Park East,N/A
N/A,Q,NY72,N/A,N/A,N/A,NA,NY,Cambria Heights Civic Association,227th Street,Cambria Heights
28,M,NY73,N/A,40.727318,-73.977194,M359,NY,CAMPOS,640-644 East 12th Street,East Village
N/A,M,NY74,N/A,N/A,N/A,M388,NY,Carolina Garden / formerly 116th Street Block Association,122nd Street,East Harlem
N/A,X,NY75,N/A,N/A,N/A,NA,NY,Carpenter Avenue Community Garden,in East 239th Street,Wakefield
218,M,NY76,N/A,40.804436,-73.952746,M385,NY,Carrie McCracken Garden/TRUCE,143-145 St. Nicholas Avenue,N/A
119,B,NY77,N/A,40.676396,-73.984555,NA,NY,Carroll Street Community Garden (Our Lady of Peace Church or Gil Hodges Garden),534 Carroll Street,N/A
194,M,NY78,N/A,40.802632,-73.935399,NA,NY,Carver Community Garden,236-242 East 124th Street,East Harlem
73,X,NY79,N/A,40.814133,-73.910779,NA,NY,Cauldwell Youth Garden,551 Cauldwell Avenue,Mott Haven
233,B,NY80,N/A,40.687514,-73.958923,B448,NY,Cedar Tree Garden,305 Greene Avenue,N/A
381,B,NY81,N/A,40.681591,-73.925688,NA,NY,Central Bainbridge Block Association Inc.,277-279 Bainbridge Street,Bed-Stuy
17402,M,NY82,N/A,40.797308,-73.946792,NA,NY,Chenchitas Group Garden,1691-93 Madison Avenue,East Harlem
190,M,NY83,N/A,40.802366,-73.94642,NA,NY,Childrens Aid Soc. Garden (The Sowers),21 West 118th Street,N/A
385,B,NY84,N/A,40.687548,-73.926979,B224A,NY,Citizens for a Better Community,127 Patchen Avenue,Bed-Stuy
67,M,NY85,N/A,40.729412,-74.006148,NA,NY,City-As-School H.S.,16 Clarkson Street,West Village
1152,B,NY86,N/A,40.674214,-73.889148,B450,NY,Clara's Garden,573-579 Glenmore Avenue,East New York
17701,X,NY87,N/A,40.834051,-73.910553,X321,NY,Claremont Neighborhood Garden,1280 Teller Avenue,N/A
231,B,NY88,N/A,40.683943,-73.959033,NA,NY,Classon/Fulgate Block Association,474 Classon Avenue,N/A
17702,X,NY89,N/A,40.835309,-73.908936,NA,NY,Clay Avenue Community Garden,1328-1332 Clay Avenue,N/A
215,M,NY90,N/A,40.810959,-73.950928,M374,NY,Clayton Williams Garden,303 W 126th Street,N/A
1166,B,NY91,N/A,40.674162,-73.884339,B526,NY,Cleveland Street Vegetable Garden,433-435 Cleveland Street,East New York
231,B,NY92,N/A,40.687639,-73.962648,NA,NY,Clifton Place Garden,289 Grand Avenue,N/A
243,B,NY93,N/A,40.688603,-73.954945,B451,NY,Clifton Place Memorial Park & Garden,1031-35 Bedford Avenue,N/A
371,X,NY94,N/A,40.845858,-73.888049,NA,NY,Clinton Avenue Block Association,757 East 179th Street,N/A
127,M,NY95,N/A,40.762717,-73.991026,M281,NY,Clinton Community Garden,436 West 48th Street,Hell's Kitchen
225,X,NY96,N/A,40.838033,-73.91027,NA,NY,College Avenue GreenThumb,1420 College Avenue,N/A
259,M,NY97,N/A,40.826069,-73.939785,NA,NY,Colonial Gardeners,304-306 West 150th St,N/A
2201,M,NY98,N/A,40.72017,-73.984289,M335,NY,Committee of Poor Peoples of the LES Community Garden,171 Stanton Street,Lower East Side
399,B,NY99,N/A,40.692238,-73.92181,B520,NY,Concerned Citizens of Grove Street,72-74 Grove Street,Bushwick
1150,B,NY100,N/A,40.674396,-73.887803,B452,NY,Concerned Residents of Barbey Street,606 Glenmore Avenue,N/A
1194,B,NY101,N/A,40.673887,-73.87789,B453,NY,Concerned Residents of Montauk Avenue,214 Montauk Avenue,East New York
N/A,M,NY102,N/A,N/A,N/A,NA,NY,Life Sciences High School,320 96th Street NY NY 10128,Upper East Side
363,X,NY103,N/A,40.845582,-73.880943,NA,NY,Concerned Tenants of Daly Avenue,2139 Daly Avenue,N/A
403,B,NY104,N/A,40.683411,-73.907424,NA,NY,Contented Hart Garden,1475 Bushwick Avenue,Bushwick
403,B,NY105,N/A,40.684528,-73.910541,B454,NY,Cooper Street Block Buster Block Association.,41 Cooper Street,Bushwick
403,B,NY106,N/A,40.684311,-73.910725,NA,NY,Cooper Street Gardeners,34 Cooper Street,N/A
44301,Q,NY107,N/A,40.741788,-73.859801,Q474A,NY,Corona Taxpayers Association,52-02 102nd  Street,Corona
69,X,NY108,N/A,40.822689,-73.91614,X338,NY,Courtlandt Avenue Association,364-366 East 158th Street,Melrose
32,M,NY109,N/A,40.72511,-73.983119,M315,NY,Creative Little Garden,530 East 6th Street,East Village
23704,X,NY110,N/A,40.856775,-73.901518,NA,NY,Creston Jungle Playground,2242 Creston Avenue,N/A
N/A,B,NY111,N/A,N/A,N/A,B455,NY,Crystal Street Block Association Community Garden,Crystal Street,East New York
992,Q,NY112,N/A,40.595964,-73.763133,NA,NY,Culinary Kids Garde (Seagirt Community Garden),3003 Seagirt Boulevard.,Far Rockaway
284,Q,NY113,N/A,40.684574,-73.78111,NA,NY,"Curtis ""50 Cent"" Jackson Community Garden",11709 165th Street,N/A
71,B,NY114,N/A,40.684364,-73.984438,NA,NY,David Foulke Community Garden,248-250 Bergen Street,Boerum Hill
253,X,NY115,N/A,40.861379,-73.903254,NA,NY,Davidson Avenue Community Garden,2385 Davidson Avenue,N/A
2602,M,NY116,N/A,40.725296,-73.979821,M336,NY,De Colores Community Garden,311-313 E 8th Street,East Village
403,B,NY117,N/A,40.685985,-73.910265,NA,NY,Decatur Street Community Garden,1052 Decatur Street,N/A
83,X,NY118,N/A,40.815229,-73.902569,X179A,NY,Demera/Santiago Garden,941-943 Avenue St. John,N/A
188,M,NY119,N/A,40.798107,-73.936371,M323,NY,Diamante Garden (Block and School Association),306-310 East 118th Street,East Harlem
34,M,NY120,N/A,40.729306,-73.979885,M337,NY,Dias y Flores,520-522 East 13th Street,East Village
245,M,NY121,N/A,40.833766,-73.942217,NA,NY,Dorothy K. McGowan Memorial Garden,513 W 158th Street,Washington Heights
242,M,NY122,N/A,40.802742,-73.935612,M302,NY,Dream Street Park,223 - 231 E. 124 St.,N/A
N/A,X,NY123,N/A,N/A,N/A,X271A,NY,Dred Scott Bird Sanctuary Garden and Park,E 169th Street,N/A
N/A,X,NY124,N/A,N/A,N/A,NA,NY,Drew Garden - I.S. 167,East Tremont Avenue,N/A
N/A,Q,NY125,N/A,N/A,N/A,NA,NY,Dunton Block and Civic Association. Inc.,Remington Street,N/A
283,M,NY126,N/A,40.860412,-73.927936,NA,NY,Dyckman Valley School - P.S. 152,93 Nagle Avenue,N/A
2602,M,NY127,N/A,40.725022,-73.979172,M324,NY,Earth People,333-335 East 8th Street,East Village
2601,M,NY128,N/A,40.72438,-73.98138,NA,NY,Earth School - P.S.64,600 East 6th Street,East Village
166,M,NY129,N/A,40.790817,-73.948859,NA,NY,East 103rd Street Community Garden,105 E 103rd Street,N/A
41,X,NY130,N/A,40.812172,-73.920336,NA,NY,East 143rd Street Community Garden (Bronx Community & Cultural Garden or North Church Garden),401 E 143rd Street,N/A
500,B,NY131,N/A,40.648198,-73.977358,B414,NY,East 4th St. Com. Gar.(Windsor Terrace Kensington Veterans Mem.),171 E 4th Street,Kensington
N/A,B,NY132,N/A,N/A,N/A,NA,NY,East End Community Garden,530-2 Glenmore Avenue / 260 Van Siclen Avenue,East New York
178,M,NY133,N/A,40.796357,-73.934119,NA,NY,East Harlem Community Garden,429-433 East 117th Street,East Harlem
N/A,B,NY134,N/A,N/A,N/A,B458,NY,Eastern Parkway Coalition,"Eastern Pkwy.,W/O Franklin",Crown Heights
231,M,NY135,N/A,40.826462,-73.941811,M319B,NY,Edgecomb Avenue Garden Park Sanctuary,339-341 Edgecomb Avenue,N/A
141,X,NY136,N/A,40.8227,-73.912729,X341,NY,Edith Community Garden (830 Elton Tnts. Assoc.),836 Elton Avenue,Melrose
208,M,NY137,N/A,40.809753,-73.94231,M316,NY,Edward P. Bowman Park,52 W 129th Street,West Harlem
75,X,NY138,N/A,40.820573,-73.909101,X313,NY,El Batey Borincano,811-815 Eagle Avenue,"
Melrose"
395,X,NY139,N/A,40.847974,-73.896315,X323,NY,El Batey de Dona Provi,504 East 178th Street,N/A
172,M,NY140,N/A,40.794391,-73.9434,NA,NY,El CataÃ±o Garden,169 East 110th Street,East Harlem
N/A,X,NY141,N/A,N/A,N/A,X339,NY,El Flamboyan,Tinton Avenue,N/A
2701,X,NY142,N/A,40.806094,-73.915774,X277,NY,El Girasol,624-638 East 138th Street,N/A
2701,X,NY143,N/A,40.806094,-73.915774,X277,NY,El Girasol,624-638 East 138th Street,N/A
N/A,M,NY144,N/A,N/A,N/A,M268A,NY,El Jardin del Paraiso,706-718 East 5th Street /311-321 East 4th Street,East Village
523,B,NY145,N/A,40.712385,-73.959633,B424,NY,El Puente: EspÃ­ritu Tierra Community Garden,203-207 South 2nd Street,Williamsburg
34,M,NY146,N/A,40.728694,-73.980372,M339,NY,El Sol Brillante Jr.,537 East 12th Street,East Village
228,M,NY147,N/A,40.815768,-73.940759,M340,NY,Elizabeth Langley Memorial Garden,121-123 West 137th Street,Central Harlem
1164,B,NY148,N/A,40.668638,-73.882081,B460,NY,Elton Street Block Association,585 Elton Street,East New York
1168,B,NY149,N/A,40.680441,-73.883066,NA,NY,Essex Street Community Fulton Street Garden (Fulton Street Community Garden),3030 Fulton Street,East New York
1196,B,NY150,N/A,40.673943,-73.871567,B461,NY,Euclid 500 Block Association.,532 Euclid Avenue,East New York
N/A,B,NY151,N/A,N/A,N/A,NA,NY,Euclid Pine Block Association,N/A,East New York
299,B,NY152,N/A,40.678383,-73.926777,B532,NY,F.A.R.R. Block Association,808 Herkimer Street,N/A
1120,B,NY153,N/A,40.665184,-73.881518,B462,NY,Family Community Garden - Brooklyn,793 Cleveland Street,East New York
172,M,NY154,N/A,40.79527,-73.943572,M330,NY,Family Community Garden - Manhattan,156 East 111th Street,East Harlem
178,M,NY155,N/A,40.794189,-73.935108,NA,NY,Family Garden,431 East 114th Street,East Harlem
69,X,NY156,N/A,40.822053,-73.913995,X337,NY,Family Group Garden,419 East 158th Street,Melrose
894,B,NY157,N/A,40.664208,-73.917132,B463,NY,Fantasy Garden,181 Legion Street,Brownsville
N/A,X,NY158,N/A,N/A,N/A,X252B,NY,Farm in the Bronx,East 182nd Street,N/A
303,B,NY159,N/A,40.674381,-73.91832,B464,NY,Farmers Garden,1897-1905 Bergen Street,N/A
2602,M,NY160,N/A,40.72447,-73.97791,M310,NY,Firemens Memorial Garden Inc.,358-364 E 8th Street,East Village
265,B,NY161,N/A,40.687717,-73.944139,B465,NY,First Quincy Street GreenThumb Garden,397-401 Quincy Street,N/A
3602,M,NY162,N/A,40.72384,-73.989772,M358,NY,First Street Garden,48 East 1st Street,N/A
1126,B,NY163,N/A,40.666585,-73.890635,B466,NY,First Temple of David,494 Bradford Street,East New York
1501,M,NY164,N/A,40.709257,-74.00198,M291,NY,FishBridge Pk. (South-Water-Front Neigh. Assoc.),338-340 Pearl Street,Downtown Manhattan
220,M,NY165,N/A,40.807004,-73.951621,NA,NY,Five Star Block Association,250-252 West 121st Street,Harlem
1150,B,NY166,N/A,40.673578,-73.884567,B467,NY,Floral Vineyard,2379-2385 Pitkin Avenue,East New York
39901,X,NY167,N/A,40.863711,-73.892599,X324,NY,Fordham Bedford Lot-Busters,2592-2597 Bainbridge Avenue,N/A
39901,X,NY168,N/A,40.863711,-73.892599,X324,NY,Fordham Bedford Lot-Busters,2592-2597 Bainbridge Avenue,N/A
229,M,NY169,N/A,40.824306,-73.949441,M317,NY,Frank White Memorial Garden,506-508 West 143rd Street,Hamilton Heights
185,X,NY170,N/A,40.826309,-73.905603,X318,NY,Franklin Memorial Garden,1060-1062 Cauldwell Avenue,Morrisania
N/A,M,NY171,N/A,N/A,N/A,NA,NY,Frederick Douglass Academy HS,2599 Adam Clayton Powell Jr Boulevard,N/A
17402,M,NY172,N/A,40.796245,-73.945843,NA,NY,Friendly Garden,95 East 111th Street,East Harlem
237,M,NY173,N/A,40.828638,-73.945842,NA,NY,Friendship Garden (Lucille McClarey Garden),499 West 150th Street,Hamilton Heights
N/A,M,NY174,N/A,N/A,N/A,M377,NY,Garden,Fredrick Douglas Blvd. and W. 152ns St,N/A
N/A,B,NY175,N/A,N/A,N/A,B420,NY,Garden Beautiful,Corner of Broadway & Putnam Ave.,Bed-Stuy
387,B,NY176,N/A,40.690966,-73.928771,NA,NY,Garden of Angels,978 Greene Avenue,Bed-Stuy
22902,X,NY177,N/A,40.844045,-73.907616,X297,NY,Garden of Eden - Bronx,1686 Weeks Avenue,N/A
371,X,NY178,N/A,40.848425,-73.885543,X293,NY,Garden of Happiness,2156-2160 Prospect Avenue,Crotona
275,B,NY179,N/A,40.683685,-73.939967,NA,NY,Garden of Hope,392 Hancock Street,N/A
22902,X,NY180,N/A,40.844009,-73.907641,X298,NY,Garden of Life,1685 Weeks Avenue,N/A
20102,M,NY181,N/A,40.804522,-73.955636,M341,NY,Garden of Love,302 West 116th Street,Upper West Side
N/A,B,NY182,N/A,N/A,N/A,B399,NY,Garden of Union (Annie's Garden),"634-36, 640 Union Street",Park Slope
N/A,X,NY183,N/A,N/A,N/A,NA,NY,Garden Of Youth,E 182nd Street,Crotona
N/A,M,NY184,N/A,N/A,N/A,M071A,NY,Garden People,West 91st and Riverside Drive,N/A
2601,M,NY185,N/A,40.722906,-73.981662,M329,NY,Generation X Cultural Garden,270-272 East 4th Street,East Village
1134,B,NY186,N/A,40.667834,-73.900611,NA,NY,Genesis Homes Garden,298-304 Snediker Avenue,East New York
N/A,Q,NY187,N/A,N/A,N/A,Q488,NY,George Eagle Carr Community Garden,148th Street,Jamaica
260,Q,NY188,N/A,40.692461,-73.794877,Q489,NY,George Washington Carver Botanical Garden,109-13 156th Street,N/A
277,M,NY189,N/A,40.855954,-73.927051,NA,NY,George Washington High School,549 Audubon Avenue,Washington Heights
N/A,Q,NY190,N/A,N/A,N/A,NA,NY,P.S. 251Q,144-51 144th Road,Springfield Gardens
13,B,NY191,N/A,40.694926,-73.986015,NA,NY,George Westinghouse HS - Marvin's Garden,"105 Johnson Street (Tech), Brooklyn, NY 11201",Downtown Brooklyn
1128,B,NY192,N/A,40.661178,-73.894558,B415,NY,Georgia Avenue Community Garden,328 New Lots Avenue,East New York
916,B,NY193,N/A,40.659215,-73.909847,B436,NY,Gethsemane Garden,144 Newport Street,Brownsville
1152,B,NY194,N/A,40.674105,-73.88988,B468,NY,Glenmore Hendrix Block Assoc.,555 Glenmore Avenue,East New York
N/A,X,NY195,N/A,N/A,N/A,NA,NY,Glover Street Community Garden,"1642 Glover Street, Bronx NY 10462",N/A
1164,B,NY196,N/A,40.670738,-73.879951,B469,NY,Good Shepherd's Community Group,555-557 Shepherd Avenue,East New York
N/A,B,NY197,N/A,N/A,N/A,B428,NY,Goodwin Gardens,46 - 62 Goodwin St.,N/A
405,B,NY198,N/A,40.682511,-73.907811,B470,NY,Granite Street Block Association,28-32 Granite Street,Bushwick
18101,X,NY199,N/A,40.830303,-73.916893,NA,NY,Grant Avenue Garden,1062 Grant Avenue,N/A
515,B,NY200,N/A,40.719516,-73.952969,B058A,NY,Green Dome,229 North 12th Street,Greenpoint
1196,B,NY201,N/A,40.676272,-73.875077,B471,NY,Green Gems,947-953 Glenmore Avenue,East New York
133,B,NY202,N/A,40.676008,-73.980745,NA,NY,Green Space @ President Street,222 5th Avenue,Park Slope
243,B,NY203,N/A,40.688329,-73.951722,B472,NY,Greene Avenue United Neighbors Association,490 Greene Avenue,N/A
N/A,Q,NY204,N/A,N/A,N/A,Q045A,NY,"LIC Comm. Gardens, Inc.",S/S 49th Avenue./W/O Vernon Boulevard.,Long Island City
33,B,NY205,N/A,40.689322,-73.975044,NA,NY,Greene Garden,2 South Portland Avenue,N/A
N/A,B,NY206,N/A,N/A,N/A,B484,NY,Gregory's Garden (P.S. 158 Memorial Garden),"444,448 Warwick Avenue",East New York
377,B,NY207,N/A,40.684918,-73.922702,NA,NY,Halsey Ralph and Howard Garden,774 Halsey St.,N/A
267,B,NY208,N/A,40.683344,-73.942924,B473,NY,Hancock T & T Block Association,322-324 Hancock Street,N/A
N/A,B,NY209,N/A,N/A,N/A,B527,NY,Hands & Heart (New Lots Urban Farm),New Lots Avenue,East New York
2,X,NY210,N/A,40.807736,-73.857874,X118A,NY,Harding Park Beautification Project,155 Harding Park,N/A
206,M,NY211,N/A,40.808821,-73.9401,M363,NY,Harlem Rose Garden,4-8 E 129th Street,N/A
226,M,NY212,N/A,40.813777,-73.942176,M297,NY,Harlem Success Garden - P.S. 175/I.S. 275,116 - 122 West 134th Street,Harlem
208,M,NY213,N/A,40.809753,-73.94231,NA,NY,Harlem Village Green,52 W 129th Street,Harlem
261,B,NY214,N/A,40.693662,-73.94457,NA,NY,Hart Street Community Garden,169-171 Hart Street,Bed-Stuy
261,B,NY215,N/A,40.693312,-73.947474,B474,NY,Hart to Hart,104-108 Hart Street,Bed-Stuy
N/A,B,NY216,N/A,N/A,N/A,B400,NY,Hattie Carthan Community Garden,654 Lafayette Avenue/363-365 Clifton Place,Bed-Stuy
505,B,NY217,N/A,40.708692,-73.944327,NA,NY,Heckscher Foundation For Children's Garden,134-136 Scholes Street,Williamsburg
1160,B,NY218,N/A,40.668485,-73.888314,NA,NY,Hendrix Street Community Garden (Block Association of Hendrix Street),532 Hendrix Street,East New York
172,M,NY219,N/A,40.795069,-73.943106,NA,NY,Herb Garden (111th St. Betterment Association),176 E 111th Street,East Harlem
1150,B,NY220,N/A,40.674263,-73.888701,B475,NY,Herbal Garden of East New York,582 - 590 Glenmore Avenue,East New York
139,M,NY221,N/A,40.767791,-73.987531,NA,NY,High School For Environmental Studies,444 W 56th Street NY NY 10019,Midtown
N/A,B,NY222,N/A,N/A,N/A,B047A,NY,Highland Park Children's Garden,Jamaica Avenue,Highland Park
199,B,NY223,N/A,40.685321,-73.965249,NA,NY,Hollenback Community Garden,460 Washington Avenue,Clinton Hill
178,M,NY224,N/A,40.79645,-73.934347,NA,NY,Home Depot Community Garden  (St. Mark's Monastery 1),415-421 East 117th Street,East Harlem
3002,M,NY225,N/A,40.722289,-73.984094,M371,NY,Hope Garden,193 East 2nd Street,East Village
229,M,NY226,N/A,40.823414,-73.94895,NA,NY,Hope Steven Garden,1656 Amsterdam Avenue,Hamilton Heights
N/A,X,NY227,N/A,N/A,N/A,X346,NY,Hornaday Community Garden (Volky Flower Garden),851 Hornaday Avenue,N/A
892,B,NY228,N/A,40.663636,-73.918957,B528,NY,Howard Garden,750 Howard Avenue,Brownsville
369,B,NY229,N/A,40.679912,-73.907566,B413,NY,Hull Street Community Garden Inc.,196 Hull Street,Ocean Hill / Brownsville
371,B,NY230,N/A,40.679465,-73.911615,NA,NY,Hull Street Playground,145 Hull Street,Bed-Stuy
170,M,NY231,N/A,40.791109,-73.939592,M344,NY,Humacao Community Garden,335 E 108th Street,East Harlem
51,B,NY232,N/A,40.684958,-74.002726,B408,NY,Human Compass Community  Garden Inc.,207-209 Columbia Street,Red Hook
N/A,M,NY233,N/A,N/A,N/A,NA,NY,I.S. 143 - Penny Harvest Garden,511 & 516 West 182nd Street,Washington Heights
36901,X,NY234,N/A,40.843546,-73.889755,NA,NY,I.S. 193X,1919 Prospect Avenue,N/A
N/A,M,NY235,N/A,N/A,N/A,NA,NY,I.S. 218 - Swindler Cove Garden,Harlem River Drive/Dyckman Street,Washington Heights
N/A,B,NY236,N/A,N/A,N/A,NA,NY,I.S. 227 - Shallow's School Yard Santuaries,6500 16th Avenue & 65th Street,N/A
1104,B,NY237,N/A,40.66011,-73.885387,NA,NY,I.S. 311 - The Essence School,"800 Van Siclen Avenue, Brooklyn, NY 11207",N/A
490,B,NY238,N/A,40.638686,-73.971651,NA,NY,I.S. 62 - The Greening of Ditmas,700 Cortelyou Road,Kensington
529,B,NY239,N/A,40.703624,-73.953146,NA,NY,I.S. 71,215 Heyward Street,Williamsburg
249,M,NY240,N/A,40.839305,-73.936159,NA,NY,I.S. 90 Miracle Sisters Garden,"21 Jumel Place, NY NY 10032",Washington Heights
430,B,NY241,N/A,40.60754,-73.984661,NA,NY,I.S. 96,99 Avenue P,N/A
309,B,NY242,N/A,40.676312,-73.933182,NA,NY,Imani II Garden (Schenectady Avenue Community Garden),87-91 Schenectady Avenue,Crown Heights
73,X,NY243,N/A,40.814909,-73.906522,X314,NY,Isla Verde Garden,625 Wales Avenue,N/A
185,X,NY244,N/A,40.822474,-73.907194,NA,NY,J.H.S. 120,890 Cauldwell Avenue,N/A
211,B,NY245,N/A,40.696324,-73.97578,NA,NY,J.H.S. 265,101 Park Avenue,N/A
196,M,NY246,N/A,40.803013,-73.940152,M364,NY,Jackie Robinson Community Garden,103 East 122nd Street,N/A
N/A,X,NY247,N/A,N/A,N/A,X319,NY,Jackson Forest/Morrisania Concerned Citizens,722 & 736 Home Street,Morrisania
185,X,NY248,N/A,40.825997,-73.906723,NA,NY,Jacqueline Denise Davis Garden,1022-1024 Boston Road (north of E 165th Street),N/A
133,X,NY249,N/A,40.821675,-73.903546,NA,NY,Jane Adams Vocational H.S. - 4 Seasons Garden,900 Tinton Avenue,N/A
233,B,NY250,N/A,40.687596,-73.958223,NA,NY,Jane Bailey Memorial Garden,327-329 Greene Avenue,N/A
169,X,NY251,N/A,40.837907,-73.903201,X320,NY,Jardin de la Familia,1507 Washington Avenue,N/A
N/A,X,NY252,N/A,N/A,N/A,NA,NY,Jardin la Roca/Rock Garden,160 Elton Avenue,Melrose
1162,B,NY253,N/A,40.670461,-73.886004,B477,NY,Jerome Gardens,447 Jerome Street,N/A
1150,B,NY254,N/A,40.672292,-73.888329,B478,NY,Jerry and the Senior Gents of E.N.Y.,349 Schenck Avenue,East New York
902,B,NY255,N/A,40.667016,-73.91396,B511,NY,Jes Good Rewards Children's Garden,155 Amboy Street,Brownsville
N/A,X,NY256,N/A,N/A,N/A,NA,NY,JFK High School - Enchanted Garden,JFK High School 99 Terrace View Avenue,Marble Hill
N/A,X,NY257,N/A,N/A,N/A,NA,NY,Jim Mackey Eastchester Road Community Garden,E/S Eastchester Road & N/O E 222nd Street,N/A
13302,R,NY258,N/A,40.634234,-74.12114,R146,NY,Joe Holzka Community Garden,1161 Castleton Avenue,N/A
809,Q,NY259,N/A,40.738139,-73.824944,NA,NY,John Bowne High School,"63-25 Main Street  Flushing, NY 11367",N/A
155,B,NY260,N/A,40.669629,-73.979287,NA,NY,John Jay High School,"237 7th Avenue.  Brooklyn, NY 11215",Park Slope
287,B,NY261,N/A,40.696355,-73.93473,NA,NY,John the Baptist Community Center Inc.,10 Stuyvesant Avenue,N/A
N/A,B,NY262,N/A,N/A,N/A,B509,NY,Jordan Magic Garden - DPR,Belmont Ave & Van Siclen Ave,East New York
125,X,NY263,N/A,40.827899,-73.890901,NA,NY,Jose Gonzalez House Community Garden,1175 Hoe Avenue,N/A
222,M,NY264,N/A,40.807407,-73.950588,M351,NY,Joseph Daniel Wilson Memorial Gardens,219 W. 122nd Street,N/A
2202,M,NY265,N/A,40.722502,-73.982582,M345,NY,Kenkeleba House Garden,212 E. 3rd Street,East Village
281,B,NY266,N/A,40.692034,-73.93917,B398,NY,Kosciusko St. Comm. Pk./Learning Center,385-389 Kosciusko Street,Bed-Stuy
363,X,NY267,N/A,40.843482,-73.88086,X266A,NY,Krystal Community Garden,2085-2093 Vyse Avenue.,N/A
194,M,NY268,N/A,40.799606,-73.937894,NA,NY,La Casita,223 E. 119th Street,East Harlem
184,M,NY269,N/A,40.798797,-73.944151,M383,NY,La Cuevita Community Garden,71 East 115th Street,East Harlem
N/A,X,NY270,N/A,N/A,N/A,X145,NY,La Finca Del Sur/ South Bronx Farmers,138th & Grand Concourse,N/A
427,B,NY271,N/A,40.704359,-73.929634,NA,NY,La Finea,1036 Flushing Avenue,N/A
189,X,NY272,N/A,40.832115,-73.929249,X327,NY,La Isla,96-98 W. 163rd Street,Highbridge
189,M,NY273,N/A,40.798286,-73.962719,M373,NY,La Perla Garden,76 W. 105th Street,Upper West Side
2602,M,NY274,N/A,40.725815,-73.979248,M325,NY,La Plaza Cultural-Armando Perez,632-650 E. 9th Street,East Village
5501,M,NY275,N/A,40.727809,-73.999159,NA,NY,LaGuardia Corner Community Garden,511 LaGuardia Place,Greenwich Village
199,X,NY276,N/A,40.835464,-73.925809,X328,NY,Las Casitas Community Garden,1126 - 1140 Woodycrest Avenue,Highbridge
69,X,NY277,N/A,40.821362,-73.914154,X337,NY,Latinos Unidos,427 East 157th Street,N/A
24501,X,NY278,N/A,40.852536,-73.913333,NA,NY,Learning Tree,1885 University Avenue (behind Calvary Methodist Church),N/A
227,B,NY279,N/A,40.6806,-73.957474,B479,NY,Lefferts Place Block Association,162 Lefferts Place,N/A
196,M,NY280,N/A,40.802809,-73.938552,M346,NY,"Life Spire (CRMD, Inc.)",2015 Lexington Avenue,Harlem
800,B,NY281,N/A,40.661467,-73.952239,B480,NY,Lincoln Road Garden,316 Lincoln Road,N/A
131,B,NY282,N/A,40.677378,-73.978845,NA,NY,Lincoln-Berkeley Comm. Garden,20 Lincoln Place,Park Slope
N/A,Q,NY283,N/A,N/A,N/A,NA,NY,Linden Boulevard Community Garden,178th Street & Linden Boulevard,N/A
417,B,NY284,N/A,40.693162,-73.919649,NA,NY,Linden-Bushwick Garden,113 Linden Street,Bushwick
17402,M,NY285,N/A,40.796976,-73.947034,NA,NY,Little Blue House,1675 Madison Avenue,East Harlem
3602,M,NY286,N/A,40.723832,-73.991576,M326,NY,Liz Christy Garden,110 E Houston Street,Lower East Side
N/A,Q,NY287,N/A,N/A,N/A,NA,NY,Long Island City Roots Community Garden,47th Avenue.,N/A
2601,M,NY288,N/A,40.722453,-73.982423,M357,NY,Los Amigos,221 East 3rd Street,Lower East Side
178,M,NY289,N/A,40.796043,-73.932422,NA,NY,Los Amigos Garden,326 Pleasant Avenue,East Harlem
2602,M,NY290,N/A,40.724508,-73.979851,M361,NY,Lower East Side Ecology Center,213 E. 7th Street,East Village
6,M,NY291,N/A,40.712962,-73.990026,NA,NY,Lower East Side People Care,25 Rutgers Street,Lower East Side
16,M,NY292,N/A,40.716553,-73.993092,NA,NY,M.S. 131,"100 Hester Street  NY, NY 10002",Lower East Side
310,X,NY293,N/A,40.863735,-73.83607,NA,NY,M.S. 144,2545 Gunther Avenue,N/A
N/A,Q,NY294,N/A,N/A,N/A,NA,NY,M.S. 210 - YMCA Beacon Center Garden,"93-11 101st Street, Ozone Park, NY 11416",Ozone Park
163,B,NY295,N/A,40.676094,-73.97038,NA,NY,M.S. 340,227 Sterling Place,Prospect Heights
876,B,NY296,N/A,40.662447,-73.936382,NA,NY,M.S. 391 Mahalia Jackson,790 East New York Avenue,N/A
193,M,NY297,N/A,40.80069,-73.962238,NA,NY,M.S. 54 - Booker T Washington Garden,103 West 108th Street,East Harlem
329,B,NY298,N/A,40.664007,-73.94922,NA,NY,M.S. 61 -  Atwell,400 Empire Boulevard.,N/A
375,B,NY299,N/A,40.687995,-73.922006,B499,NY,Madison Community GreenThumb Garden,894 Madison Street,N/A
435,B,NY300,N/A,40.694952,-73.913174,B481,NY,Madison Square Garden,1262-1264 Madison Street,N/A
397,B,NY301,N/A,40.688959,-73.919063,NA,NY,Madison Street Association,974 Madison Street,N/A
229,B,NY302,N/A,40.684145,-73.955485,B482,NY,Madison Street Block Association,88-90 Madison Street,N/A
233,M,NY303,N/A,40.828472,-73.947418,NA,NY,Maggies Garden,564 West 149th Street,Washington Heights
166,M,NY304,N/A,40.788624,-73.948933,M327,NY,Maggies Garden (formerly Ebenezer Wesleyan Methodist Church Garden),1574 Lexington Avenue,East Harlem
182,M,NY305,N/A,40.800245,-73.942524,NA,NY,Magic Garden,1665-71 Park Avenue,East Harlem
381,Q,NY306,N/A,40.757942,-73.858287,NA,NY,Malcom X Day Care Center,111-26 Northern Boulevard.,N/A
221,B,NY307,N/A,40.675251,-73.953404,NA,NY,MaMa Dee's Garden,1397 Bedford Avenue,Crown Heights
1192,B,NY308,N/A,40.674461,-73.878498,B483,NY,Manleys Place,2539 Pitkin Avenue,East New York
5001,X,NY309,N/A,40.824911,-73.875459,NA,NY,Manor Avenue Seniors Garden,1025 Manor Avenue,N/A
N/A,B,NY310,N/A,N/A,N/A,B510,NY,Marcus Garvey Tenants Association,Strauss Street/N/O Pitkin Avenue,Brownsville
226,M,NY311,N/A,40.813563,-73.943564,M297A,NY,Margrichantie Memorial Garden,155-159 W. 133rd Street,N/A
N/A,X,NY312,N/A,N/A,N/A,NA,NY,Maritime Academy @ P.S. 10,"2770 Lafayette Avenue, Bronx, NY 10465",Schuylerville
N/A,Q,NY313,N/A,N/A,N/A,NA,NY,McIntosh Neighborhood Assoc.,S/E/C 100th Street & McIntosh Street,N/A
254,Q,NY314,N/A,40.695304,-73.791536,Q493,NY,McKinleys Childrens Garden,108-56 Union Hall Street,Jamaica
908,B,NY315,N/A,40.673067,-73.905437,NA,NY,McLeods Community Garden (formerly Powell Street Block Association - Liberty Ave),130 Liberty Avenue,N/A
69,X,NY316,N/A,40.820733,-73.917663,NA,NY,Members Group (Dalia Group Garden),724 Courtlandt Avenue,Melrose
N/A,Q,NY317,N/A,N/A,N/A,NA,NY,"Merrick-Marsden Neighbors Association., Inc.",11818-11820 Merrick Boulevard.,N/A
N/A,M,NY318,N/A,N/A,N/A,M105A,NY,Mfinda Kalunga Garden,Rivington Street Crossover (in Sarah Roosevelt Park),East Village
119,X,NY319,N/A,40.821522,-73.889293,NA,NY,Mildred T. Rhodebeck Garden (Garden of Eden),927 Faile Street,N/A
N/A,X,NY320,N/A,N/A,N/A,X329,NY,Miracle Garden - Bronx,Marmion Avenue,N/A
3002,M,NY321,N/A,40.722917,-73.983563,M314,NY,Miracle Garden - Manhattan,194-196 East 3rd Street,East Village
233,M,NY322,N/A,40.827075,-73.947928,NA,NY,Mo Pals,545 West 147th Street,Hamilton Heights
193,M,NY323,N/A,40.799757,-73.962476,M347,NY,Mobilization For Change Community Garden,955 Columbus Avenue,Upper West Side
153,X,NY324,N/A,40.831037,-73.894748,X342,NY,Model T,1312 Bristow Street.,N/A
24301,M,NY325,N/A,40.835442,-73.939039,M348,NY,Morris Jumel Community Garden,455-457 W 162nd Street,Washington Heights
N/A,X,NY326,N/A,N/A,N/A,X275,NY,Mosaic Center (Success Garden),1315-31 Odgen Avenue,N/A
297,B,NY327,N/A,40.682591,-73.931996,NA,NY,Mt. Lebanon Baptist Church,354 Stuyvesant Avenue.,Bed-Stuy
1162,B,NY328,N/A,40.668571,-73.886439,B514,NY,Nehemiah Ten GreenThumb Block Association,565 Barbey Street,East New York
65,X,NY329,N/A,40.817871,-73.918523,NA,NY,Neighborhood Advisory Committee,360-362 E. 151st Street,Melrose
N/A,M,NY330,N/A,N/A,N/A,NA,NY,Senior Citizens Sculpture Garden Park,West 153rd Street,Hamilton Heights
309,B,NY331,N/A,40.674258,-73.932456,NA,NY,Neighborhood Community Garden,1123 Saint Marks Avenue,N/A
N/A,M,NY332,N/A,N/A,N/A,M338,NY,Neighbors of Vega Baja,E. 109th Street,East Harlem
N/A,M,NY333,N/A,N/A,N/A,M349,NY,New 123rd Street Block Association,"112,114 & 116 W. 123rd Street",Harlem
387,B,NY334,N/A,40.688836,-73.92789,B518,NY,New Age Pride (Victory Garden's Group),953 Gates Avenue,Bed-Stuy
N/A,B,NY335,N/A,N/A,N/A,NA,NY,New Harvest (Vrn/Mrcy/Tmpks B.A.),"125,123,121 Vernon Avenue",Bed-Stuy
N/A,X,NY336,N/A,N/A,N/A,X241,NY,New Hoe Avenue Garden,958 New Hoe Avenue,N/A
1124,B,NY337,N/A,40.666227,-73.886797,B449,NY,New Vision Garden,590-594 Schenck Avenue.,East New York
916,B,NY338,N/A,40.659785,-73.908199,B513,NY,Newport Gardens,823 Rockaway Avenue,Brownsville
N/A,B,NY339,N/A,N/A,N/A,NA,NY,Nicks Garden,Lorimer and Bayard Streets,N/A
161,X,NY340,N/A,40.834816,-73.885082,X273,NY,North LUBAs Community Rock Garden,1665 Longfellow Avenue,N/A
519,B,NY341,N/A,40.716007,-73.957527,NA,NY,Northside Community Garden,599 Driggs Avenue,Williamsburg
135,M,NY342,N/A,40.766411,-73.991989,NA,NY,Oasis Community Garden (Hellâs Kitchen),511-519 W. 52nd Street,Hell's Kitchen
481,B,NY343,N/A,40.713243,-73.938822,B425,NY,Olive Garden,21-25 Olive Street,N/A
34,M,NY344,N/A,40.729801,-73.983057,M321A,NY,Open Road Park (LES),404-16 East 12th Street,East Village
2601,M,NY345,N/A,40.721472,-73.978275,M354,NY,Orchard Alley,350-54 East 4th Street,East Village
N/A,B,NY346,N/A,N/A,N/A,B024,NY,Orient Grove,Metropolitan Ave. and Orient Ave.,N/A
1150,B,NY347,N/A,40.673773,-73.887768,B521,NY,Oriental Garden,369-371 Barbey Street & 326-328 Jerome St,East New York
222,M,NY348,N/A,40.807872,-73.951693,M365,NY,Our Little Green Acre,275-277 West 122nd Street,N/A
425,X,NY349,N/A,40.870002,-73.878875,NA,NY,P.S. / M.S. 20,3050 Webster Avenue,N/A
167,B,NY350,N/A,40.663251,-73.981289,NA,NY,P.S. 107 - Rainbow Garden,1301 8th Avenue,N/A
89,M,NY351,N/A,40.744349,-74.000253,NA,NY,P.S. 11,320 West 21st Street  NY NY 10011,Chelsey
133,M,NY352,N/A,40.765878,-73.988823,NA,NY,P.S. 111,440 W. 53rd Street,Hell's Kitchen
261,M,NY353,N/A,40.846542,-73.935205,NA,NY,P.S. 115M,586 W. 177th Street,N/A
734,B,NY354,N/A,40.625662,-73.938265,NA,NY,P.S. 119,3829 Avenue K,N/A
80301,Q,NY355,N/A,40.745526,-73.829309,NA,NY,P.S. 120Q - Millenium Garden,58-01 136th Street,Flushing
373,B,NY356,N/A,40.682458,-73.917088,NA,NY,P.S. 137,121 Saratoga Avenue,Bed-Stuy
74,X,NY357,N/A,40.822665,-73.853366,NA,NY,P.S. 138X,2060 Lafayette Avenue,N/A
693,Q,NY358,N/A,40.72814,-73.863582,NA,NY,P.S. 139Q,93-06 63rd Drive,N/A
1158,B,NY359,N/A,40.669564,-73.892328,B442,NY,P.S. 149 - Artsy Bloom Community Garden,365-67 Wyona Street,East New York
369,B,NY360,N/A,40.677415,-73.908734,NA,NY,P.S. 155,1355 Herkimer Street,N/A
61,X,NY361,N/A,40.823174,-73.923326,NA,NY,P.S. 156 Garden,750 Concourse Village West,N/A
232,B,NY362,N/A,40.637486,-73.985955,NA,NY,P.S. 164 - Stepping Into the New Millenium,4211 14th Avenue,N/A
470,B,NY363,N/A,40.627029,-73.989672,NA,NY,P.S. 180 - Our Secret Garden,5601-23 16th Avenue  Brooklyn NY 11204,N/A
856,B,NY364,N/A,40.648215,-73.946374,NA,NY,P.S. 181K - Garden Club,1023 New York Avenue,N/A
186,M,NY365,N/A,40.798511,-73.949251,NA,NY,P.S. 185/208M,20 W. 112th Street,Upper West Side
151,X,NY366,N/A,40.831804,-73.898396,X330,NY,P.S. 186 - Day Treatment Program,745 Jennings Street,N/A
527,B,NY367,N/A,40.709647,-73.95465,NA,NY,P.S. 19K - Kid's Garden,"325 South 3rd Street Brooklyn, NY 11211",Williamsburg
N/A,Q,NY368,N/A,N/A,N/A,NA,NY,P.S. 19Q,"99th Street and Roosevelt Avenue.  Queens, NY 11368",Corona
236,M,NY369,N/A,40.824714,-73.936841,NA,NY,P.S. 200,2599 7th Avenue.  NY NY 10039,Central Harlem
190,M,NY370,N/A,40.80247,-73.946716,NA,NY,P.S. 207/149,34 W. 118th Street,N/A
840,B,NY371,N/A,40.642031,-73.931151,NA,NY,P.S. 208,"4801 Avenue D  Brooklyn, NY 11234",N/A
249,X,NY372,N/A,40.856586,-73.916198,NA,NY,P.S. 226 Garden,1950 Sedgwick Avenue,N/A
395,X,NY373,N/A,40.853423,-73.894463,NA,NY,P.S. 23,2175 Washington Avenue,N/A
814,B,NY374,N/A,40.654704,-73.941089,NA,NY,P.S. 235,"525 Lenox Road, Brooklyn NY 11203",North Flatbush
220,M,NY375,N/A,40.8063,-73.948013,NA,NY,P.S. 242,"134 West 122nd Street, NY, NY 10027",Central Harlem
309,B,NY376,N/A,40.676094,-73.935688,NA,NY,P.S. 243 - Weeksville School,1580 Dean Street,Crown Heights
401,X,NY377,N/A,40.865593,-73.894758,NA,NY,P.S. 246,2641 Grand Concourse,N/A
258,B,NY378,N/A,40.612273,-73.986713,NA,NY,P.S. 247K,7000 21st Avenue,N/A
506,B,NY379,N/A,40.64971,-73.966046,NA,NY,P.S. 249,18 Marlborough Road,N/A
505,B,NY380,N/A,40.707104,-73.945475,NA,NY,P.S. 250,108 Montrose Avenue,N/A
866,B,NY381,N/A,40.657131,-73.928018,NA,NY,P.S. 268,133 E. 53rd Street,N/A
59,B,NY382,N/A,40.677564,-74.005166,NA,NY,P.S. 27 / M.S. 826,27 Huntington Street Brooklyn. NY 11231,N/A
N/A,X,NY383,N/A,N/A,N/A,NA,NY,P.S. 30X,S/E/C Brook Avenue & E. 141 Street,N/A
772,B,NY384,N/A,40.633232,-73.954655,NA,NY,P.S. 315K,2310 Glenwood  Rd.,N/A
N/A,M,NY385,N/A,N/A,N/A,M113,NY,P.S. 361 - The Children's Garden,East 12th Street,East Village
119,B,NY386,N/A,40.675628,-73.985634,NA,NY,P.S. 372@834 / The Children's School,219 First Street,N/A
24502,X,NY387,N/A,40.854701,-73.913197,NA,NY,P.S. 396 / M.S. 390 X,"1930 Andrews Avenue, Bronx NY 10453",Kingbridge Heights
824,B,NY388,N/A,40.648044,-73.951891,NA,NY,P.S. 399,2707 Albemarle Road,N/A
245,M,NY389,N/A,40.834899,-73.941085,NA,NY,P.S. 4 - Duke Ellington Harmony Garden,500 West 160th Street,Harlem
1104,B,NY390,N/A,40.657212,-73.888852,NA,NY,P.S. 4 at P.S. 843,530 Stanley Avenue,East New York
254,Q,NY391,N/A,40.694119,-73.797003,NA,NY,P.S. 48Q,155-02 108th Avenue,N/A
663,Q,NY392,N/A,40.719071,-73.875437,NA,NY,P.S. 49Q,79-15 Penelope Avenue,N/A
1150,B,NY393,N/A,40.674778,-73.885228,B417,NY,P.S. 4K - Paradise Garden,676-696 Glenmore Avenue,East New York
129,M,NY394,N/A,40.762061,-73.995307,NA,NY,P.S. 51,520 West 45th Street  NY  NY 10036,Clinton Hill
1126,B,NY395,N/A,40.666063,-73.890503,B485,NY,P.S. 53,522 Bradford Street,East New York
794,B,NY396,N/A,40.649347,-73.955793,NA,NY,P.S. 6 - Operation Push,2242-62 Bedford Avenue,N/A
N/A,X,NY397,N/A,N/A,N/A,NA,NY,P.S. 63 X,"1261 Franklyn Avenue.  Bronx, NY 10456",Morrisania
N/A,X,NY398,N/A,N/A,N/A,NA,NY,P.S. 65 - Garden Club,677 East 141st,N/A
2901,B,NY399,N/A,40.695633,-73.978215,NA,NY,P.S. 67 - Charles Dorsey School,51 St. Edwards Street,N/A
39,B,NY400,N/A,40.686419,-73.979444,NA,NY,P.S. 753K @ The Bklyn. School for Career Development,372 Schermerhorn Street,Boerum Hill
220,M,NY401,N/A,40.80598,-73.951098,M356,NY,P.S. 76 - Garden of Perserverance,203 W. 120th Street   NY NY 10027,Harlem
12902,B,NY402,N/A,40.678983,-73.976497,NA,NY,P.S. 77K @ P. S 902K,62 Park Place,Park Slope
448,Q,NY403,N/A,40.708898,-73.803938,NA,NY,P.S. 86Q,87-41 Parsons Boulevard.,N/A
535,Q,NY404,N/A,40.718935,-73.912208,NA,NY,P.S. 9 - Enis Garden,58-74 57th Street,N/A
205,B,NY405,N/A,40.678297,-73.965541,NA,NY,P.S. 9 - Winston Robins Memorial Garden,"80 Underhill Avenue  Broolyn, NY   11328",Prospect Heights
38301,X,NY406,N/A,40.857067,-73.898936,NA,NY,P.S. 9 X,"230 East 183rd Street, Bronx NY 10458",Grand Concourse
180,Q,NY407,N/A,40.674991,-73.808371,NA,NY,P.S. 96Q - Garden of Hope,130-01 Rockaway Boulevard.,So. Ozone Park
291,M,NY408,N/A,40.866706,-73.923948,NA,NY,P.S./I.S. 176,4862 Broadway,N/A
23802,M,NY409,N/A,40.763894,-73.947916,NA,NY,P.S./I.S. 217 - Rooselvelt Island School,645 Main Street,Roosevelt Island
43,B,NY410,N/A,40.690145,-73.989132,NA,NY,Pacific High School,112 Schermerhorn Street,Boerum Hill
39,X,NY411,N/A,40.807883,-73.917885,X285,NY,Padre Plaza (Success Garden),541-545 E. 139th Street,N/A
1164,B,NY412,N/A,40.671292,-73.882217,NA,NY,Pagans Garden (Linwood Street Block Association),992 Sutter Avenue,N/A
71,X,NY413,N/A,40.822057,-73.908481,NA,NY,Palmas del Caribe (Eagle Avenue Community Garden),869 Eagle Avenue,Melrose
188,M,NY414,N/A,40.799617,-73.937963,NA,NY,Papos Garden,218-220 E. 119th Street,East Harlem
125,X,NY415,N/A,40.82664,-73.893877,NA,NY,Paradise on Earth Garden,1101-1105 Fox Street,N/A
2601,M,NY416,N/A,40.722038,-73.97961,NA,NY,Parque De Tranquilidad,314-318 East 4th Street,East Village
71,X,NY417,N/A,40.81478,-73.914459,NA,NY,Passages Academy,511 E. 149th Street & 511 E. 150th Street,N/A
387,B,NY418,N/A,40.690708,-73.927603,NA,NY,Patchen Avenue United Block Association,49 Patchen Avenue,Bed-Stuy
N/A,B,NY419,N/A,N/A,N/A,B500,NY,Patrick Van Doren Pocket Park,123 Malcolm X Avenue,Bed-Stuy
N/A,R,NY420,N/A,N/A,N/A,NA,NY,Pavilion Horticultural Garden,Brownell Street #11,N/A
184,M,NY421,N/A,40.800487,-73.943961,M367,NY,Peaceful Valley,50-52 East 117th Street,East Harlem
2202,M,NY422,N/A,40.72149,-73.98216,M350,NY,Peachtree Garden,236-238 East 2nd Street,East Village
N/A,Q,NY423,N/A,N/A,N/A,NA,NY,Pembroke Avenue Community Garden (Van Nostrand Court Garden),E/S Pembroke Avenue,N/A
395,B,NY424,N/A,40.691653,-73.925825,NA,NY,People's Garden (Youth City Little League),1237-1241 Broadway,Bed-Stuy
N/A,B,NY425,N/A,N/A,N/A,B517,NY,Phoenix Community Garden (formerly Somers Street),Corner of Fulton & Somers Street,N/A
N/A,M,NY426,N/A,N/A,N/A,M299,NY,Pleasant Village Community Garden,342-353 Pleasant Avenue. /502 E. 119th Street,East Harlem
N/A,B,NY427,N/A,N/A,N/A,B531,NY,Plenty: Food For All,Hunterfly Place and Atlantic Avenue,N/A
974,B,NY428,N/A,40.649609,-73.897009,B504,NY,Ponderosa Garden,664 East 105th Street,N/A
N/A,B,NY429,N/A,N/A,N/A,NA,NY,Poplar Street Community Garden,Poplar Street,Brooklyn Heights
1152,B,NY430,N/A,40.671728,-73.890057,B509,NY,Poppa & Momma Jones Historical Garden,337 Van Siclen Avenue,East New York
920,B,NY431,N/A,40.658459,-73.901057,B486,NY,Powell Street Block Association - Powell St,633 Powell Street,Brownsville
N/A,B,NY432,N/A,N/A,N/A,B516,NY,Powell Street Garden-Livonia,Powell Street,Brownsville
481,B,NY433,N/A,40.712955,-73.939721,B426,NY,Powers Street Garden,276-278 Powers Street,N/A
363,B,NY434,N/A,40.671827,-73.920811,B487,NY,Preston Community Garden,1711 Park Place,Brownsville
N/A,Q,NY435,N/A,N/A,N/A,Q475,NY,Project Eden,Kessel Street,Forest Hills
507,B,NY436,N/A,40.702631,-73.948631,B423,NY,Project Roots Garden,94 - 110 Walton St.,N/A
1130,B,NY437,N/A,40.659475,-73.895603,B506,NY,Prophecy Garden Church of God of Prophecy,43-69 Malta Street,East New York
205,B,NY438,N/A,40.678319,-73.967513,B524,NY,Prospect Heights Community Farm,252-256 St. Marks Avenue,Prospect Heights
17402,M,NY439,N/A,40.796474,-73.9474,M384,NY,Pueblo Unido,1659 Madison Avenue,East Harlem
141,X,NY440,N/A,40.823086,-73.914947,X317,NY,Rainbow Block Association.,379 East 159th Street,Melrose
359,B,NY441,N/A,40.670152,-73.923242,NA,NY,Ralph-Lincoln Service Center,1652-1654 St. John's Place,Brownsville
N/A,X,NY442,N/A,N/A,N/A,X325,NY,Randall Community Garden (Taylor Soundview Block Association),Randall Avenue,N/A
253,B,NY443,N/A,40.693796,-73.948905,B488,NY,Red Gate Garden,604 Marcy Avenue,Bed-Stuy
53,B,NY444,N/A,40.672562,-74.008692,B126B,NY,Red Hook Farm/Added Value,558 Columbia Street,Red Hook
N/A,B,NY445,N/A,N/A,N/A,B489,NY,Red Shed Garden (GREC),Humbolt Street,N/A
28,M,NY446,N/A,40.72859,-73.978637,M352,NY,Relaxation Garden (Suen Dragon Garden),209 Avenue B,East Village
208,M,NY447,N/A,40.809144,-73.942758,M316,NY,Rev. Linnette C. Williamson Memorial Park,65-67 W. 128th Street,West Harlem
N/A,M,NY448,N/A,N/A,N/A,M071B,NY,RING Garden - Riverside Inwood Neighborhood Garden,1835 Riverside Drive,Inwood
N/A,X,NY449,N/A,N/A,N/A,X335,NY,Risse Street Community Garden (Triangle Park),2 East Mosholu Parkway,N/A
220,X,NY450,N/A,40.842204,-73.876529,X245,NY,River Garden,1086 East 180th Street,West Farms
N/A,M,NY451,N/A,N/A,N/A,M072,NY,Riverside Valley Community Garden,Riverside Park/138th Street,Hamilton Heights
211,X,NY452,N/A,40.839017,-73.922729,NA,NY,Roberto Clemente Community Garden,1272-1280 Shakespeare Avenue,Highbridge
N/A,M,NY453,N/A,N/A,N/A,M375,NY,Rodale Pleasant Park Community Garden,437-39 East 114th Street/448-450 East 115th Street,East Harlem
794,B,NY454,N/A,40.646757,-73.952588,NA,NY,Rogers/Tilden/Veronica Place Block Association,2601-2603 Tilden Avenue.,N/A
2602,M,NY455,N/A,40.723877,-73.97835,M370,NY,Sam & Sadie Koenig Garden,237 E. 7th Street,East Village
326,B,NY456,N/A,40.576242,-73.988189,B490,NY,Santos White Garden,2110 Mermaid Avenue,Coney Island
12901,X,NY457,N/A,40.82331,-73.899259,X332,NY,Schomburg Satellite Academy H.S.,869 E 164th Street,Morrisania
992,Q,NY458,N/A,40.595964,-73.763133,NA,NY,Seagirt Community Garden,3003 Seagirt Boulevard.,Far Rockaway
299,B,NY459,N/A,40.678834,-73.927378,B530,NY,Seasons of Vision,9-11 Rochester Avenue,N/A
2601,M,NY460,N/A,40.722464,-73.980569,M332,NY,Secret Garden,293-297 East 4th Street,East Village
326,B,NY461,N/A,40.575997,-73.986807,NA,NY,Senior Citizens Block Association of Mermaid Avenue,2917-2923 West 20th Street,Coney Island
229,M,NY462,N/A,40.826254,-73.947965,NA,NY,Serenity Gardens,522 West 146th Street,Hamilton Heights
1128,B,NY463,N/A,40.660557,-73.893175,NA,NY,Sheffield South Block Association,673 Sheffield Avenue,East New York
17902,X,NY464,N/A,40.837275,-73.913574,NA,NY,Sheridan Manor Community Garden,1340 Sheridan Avenue,N/A
18302,X,NY465,N/A,40.828252,-73.91911,NA,NY,Sherman Avenue Community Garden,953-955 Sherman Avenue,N/A
N/A,B,NY466,N/A,N/A,N/A,B491,NY,Shield of Faith,79-85 Montauk Street,East New York
265,B,NY467,N/A,40.686076,-73.945381,B502,NY,Shiloh Garden Inc.,323-325 Monroe Street,N/A
303,B,NY468,N/A,40.675795,-73.915903,B476,NY,Shma Yisrael,2084-90 Pacific Street,Bed-Stuy
307,B,NY469,N/A,40.674829,-73.926867,NA,NY,Society for Preservation of Weeksville,1688-1696 Bergen Street,N/A
71,X,NY470,N/A,40.81825,-73.91103,NA,NY,South Bronx High School - Unity Garden,701 St. Ann's Avenue,Melrose
241,B,NY471,N/A,40.691602,-73.954593,B519,NY,Spencer Street Community Garden,230A Spencer Street,Bed-Stuy
75,X,NY472,N/A,40.817078,-73.911494,X345,NY,St. Anns Block Garden Association,666-68 St. Ann's Avenue,N/A
1156,B,NY473,N/A,40.667535,-73.893737,B492,NY,St. John Cantius Parish,476-484 New Jersey Avenue,East New York
359,B,NY474,N/A,40.670169,-73.92352,NA,NY,St. Johns Place Renaissance Garden,1642 St. John's Place,Brownsville
163,B,NY475,N/A,40.67871,-73.96929,NA,NY,St. Marks Avenue/ Prospect Heights Community Garden,207 St. Marks Avenue,Prospect Heights
N/A,B,NY476,N/A,N/A,N/A,B501,NY,St. Marks Block Association,"455,457-63 Ralph Avenue",Brownsville
245,B,NY477,N/A,40.684681,-73.950996,B503,NY,Stars of Hope Community Garden,213 Madison Street,N/A
N/A,B,NY478,N/A,N/A,N/A,B505,NY,Sterling Community Group,"1701,1713,1715 Sterling Place",Brownsville
1130,B,NY479,N/A,40.664659,-73.897865,B383,NY,Success Garden,461 Williams Avenue,N/A
3001,M,NY480,N/A,40.720933,-73.985083,NA,NY,Suffolk Street Community Garden,174 Suffolk Street,Lower East Side
231,M,NY481,N/A,40.826462,-73.941811,M319,NY,Sugar Hill Park,339-341 Edgecombe Avenue.,N/A
51,B,NY482,N/A,40.682578,-74.003869,B411,NY,Summit Street Community Garden,281-283 Columbia Street,Red Hook
379,B,NY483,N/A,40.680246,-73.917693,B525,NY,Sumpter Community Garden,182 Sumpter Street,N/A
505,B,NY484,N/A,40.70508,-73.944013,B427,NY,Sunshine Community Garden,99-100 McKibben Street,Williamsburg
342,B,NY485,N/A,40.572905,-73.994741,NA,NY,Surf Side Garden,2829 Surf Avenue,Coney Island
189,X,NY486,N/A,40.832559,-73.928305,X296,NY,Taqwa Community Farm,90 W 164th Street,Highbridge
189,X,NY487,N/A,40.832284,-73.927189,NA,NY,Target (Bronx) Community Garden (Anderson Avenue Community Garden),1001 Anderson Avenue,Highbridge
241,B,NY488,N/A,40.692061,-73.955631,NA,NY,Target (Brooklyn) Community Garden (Bedford Avenue Block Association Garden),931-933 Bedford Avenue,Bed-Stuy
178,M,NY489,N/A,40.79645,-73.934347,NA,NY,Target East Harlem Community Garden,415-421 East 117th Street,East Harlem
178,M,NY490,N/A,40.796357,-73.934119,NA,NY,Target East Harlem Community Garden (St. Mark's Monastery 2),429-433 East 117th Street,East Harlem
513,B,NY491,N/A,40.709598,-73.950072,B445,NY,Ten Eyck Houses HDFC,15-17 Ten Eyck Street,East Williamsburg
1156,B,NY492,N/A,40.667777,-73.895164,NA,NY,Thomas Jefferson High School,642-648 Blake Avenue,East New York
1144,B,NY493,N/A,40.672509,-73.900636,B416,NY,TLC Sculpture Park,271 Glenmore Avenue,East New York
22701,X,NY494,N/A,40.846592,-73.910938,X331,NY,Townsend Garden (Mt. Hope Housing Co.),1735 Walton Avenue,Mt. Eden
28,M,NY495,N/A,40.727311,-73.979074,NA,NY,Toyota Childrens Learning Garden (Coradan Evaeden),603 East 11th Street,East Village
283,B,NY496,N/A,40.694666,-73.943253,NA,NY,Tranquility Farm,267 Throop Ave.,N/A
N/A,X,NY497,N/A,N/A,N/A,NA,NY,Tremont Community Garden,S/W/C E. 178th St. & LaFontaine Avenue.,N/A
1124,B,NY498,N/A,40.666544,-73.887795,B496,NY,"Triple R/Relaxation, Reflection, Revenue (Victoria Garden)",613 Hendrix Street,East New York
N/A,Q,NY499,N/A,N/A,N/A,Q477A,NY,Two Coves Garden,30th Avenue & Main Avenue & Astoria Boulevard,N/A
1130,B,NY500,N/A,40.660713,-73.895655,B515,NY,United Community Centers Site I,285 - 303 New Lots Avenue,N/A
247,B,NY501,N/A,40.679691,-73.950448,NA,NY,United Herkimer Garden Club,97 Herkimer Street,N/A
208,M,NY502,N/A,40.809031,-73.942488,M298,NY,Unity Garden,53-55 West 128th Street,West Harlem
326,B,NY503,N/A,40.575064,-73.985961,NA,NY,Unity Tower Tenant Association,1917-23 Surf Avenue,Coney Island
1194,B,NY504,N/A,40.674543,-73.877838,B493,NY,Upon This Rock Community Garden,2556 Pitkin Avenue.,East New York
34,M,NY505,N/A,40.728258,-73.978901,M343,NY,Vamos Sembrar: For the Beloved and Otherwise Forgotten,198 Avenue B,N/A
263,B,NY506,N/A,40.690036,-73.943557,NA,NY,Van Buren Street Garden,49 Van Buren Street,N/A
283,B,NY507,N/A,40.695179,-73.943354,B495,NY,Vernon (Throop Avenue Block Assoc.),253 Throop Avenue,Bed-Stuy
253,B,NY508,N/A,40.694461,-73.950534,B508,NY,Vernon New Harvest,42-48 Vernon Avenue,Bed-Stuy
25901,B,NY509,N/A,40.695196,-73.944122,B494,NY,Vernon T&T Block Assoc.,200 Vernon Ave.,Bed-Stuy
N/A,B,NY510,N/A,N/A,N/A,B523,NY,Victory Garden,Shell Road,Coney Island
N/A,X,NY511,N/A,N/A,N/A,X010C,NY,Victory Garden - Crotona Park,Fulton Avenue / 171 St / Crotona Park South,N/A
387,B,NY512,N/A,40.688836,-73.92789,B518,NY,Victory Gardens Group,953 Gates Avenue,N/A
17402,M,NY513,N/A,40.796895,-73.945424,NA,NY,Villa Santurce Jardinera - 112th Street,74 E. 112th Street,East Harlem
N/A,M,NY514,N/A,N/A,N/A,NA,NY,Villa Santurce Jardineras - Park Avenue,Park Avenue,East Harlem
69,X,NY515,N/A,40.820531,-73.914448,X347,NY,Vogue Community Garden,431 E. 156th Street,Melrose
221,B,NY516,N/A,40.677263,-73.953835,B456,NY,Walt L. Shamal Community Garden,1093-1095 Dean Street,Crown Heights
409,X,NY517,N/A,40.870293,-73.898309,NA,NY,Walton High School,2780 Reservoir Avenue,Kingsbridge Heights
25,X,NY518,N/A,40.807068,-73.922098,X272A,NY,Wanaqua Garden,460-464 E. 136th Street,N/A
12901,B,NY519,N/A,40.68082,-73.979402,NA,NY,Warren-St.Marks Community Garden,623 Warren Street,Park Slope
4,X,NY520,N/A,40.809962,-73.85071,X088A,NY,Waterfront Community Garden,2008 Gildersleeve Avenue,Soundview
383,B,NY521,N/A,40.684676,-73.924963,B538,NY,Welcome Home Garden,681 Halsey Street,Bed-Stuy
N/A,M,NY522,N/A,N/A,N/A,M306,NY,West 104th Street Garden,6-10 W. 104th Street/ 14-18 W. 104th Street,Upper West Side
199,M,NY523,N/A,40.803674,-73.963366,M368,NY,West 111th Street People's Garden,1036-53 Amsterdam Avenue,Upper West Side
N/A,M,NY524,N/A,N/A,N/A,M362,NY,West 124th Street Community Garden,West 124th Street and 5th Avenue,N/A
208,M,NY525,N/A,40.81071,-73.940702,M380,NY,West 131st Street Community Garden,34 West 131st Street,Harlem
226,M,NY526,N/A,40.812454,-73.942882,M296,NY,West 132nd Street Garden,108-114 W. 132nd Street,Central Harlem
265,M,NY527,N/A,40.851073,-73.938894,NA,NY,West 181st Street Beautification Project,814 West 181st Street,Washington Heights
173,M,NY528,N/A,40.786617,-73.970356,M307,NY,West 87th Street Park & Garden,55-57 West 87th Street,Upper West Side
315,B,NY529,N/A,40.677792,-73.951866,NA,NY,Westbrook Memorial Garden,1233 Pacific Street,Crown Heights
7,R,NY530,N/A,40.644392,-74.084861,NA,NY,Westervelt Community & Family Garden,143 Westervelt Avenue,N/A
N/A,M,NY531,N/A,N/A,N/A,M322,NY,William A. Harris Garden,NWC of 153rd St & St. Nicholas,N/A
215,M,NY532,N/A,40.811116,-73.9513,M328,NY,William B. Washington Memorial Garden,321-325 West 126th Street,N/A
N/A,B,NY533,N/A,N/A,N/A,NA,NY,Williams Avenue Community Garden (formerly Shaw Block Association),88 Williams Avenuenue,N/A
N/A,X,NY534,N/A,N/A,N/A,X164A,NY,Wishing Well Garden,886 Reverend James A. Polite,N/A
415,B,NY535,N/A,40.692534,-73.916722,NA,NY,Woodbine St. Block Assoc.,146 Woodbine Street,N/A
189,X,NY536,N/A,40.83116,-73.929149,X333,NY,Woodycrest Community Garden,949 Woodycrest Avenue,Highbridge
